{
  "type": "FeatureCollection",
  "features": [
    {
      "type": "Feature",
      "properties": {
        "norad_id": 43567,
        "name": "GSAT0220 (GALILEO 24)",
        "group": "gnss",
        "lat": -55.46301257398261,
        "lon": -124.05258156679427,
        "alt_km": 23212.306068023303,
        "timestamp": "2025-12-22T09:53:37.648060+00:00",
        "meta_object_name": "GSAT0220 (GALILEO 24)",
        "meta_object_id": "2018-060D",
        "meta_epoch": "2025-12-19T15:28:13.770912",
        "meta_mean_motion": 1.70475932,
        "meta_eccentricity": 0.000607,
        "meta_inclination": 57.2288,
        "meta_ra_of_asc_node": 346.6359,
        "meta_arg_of_pericenter": 288.3471,
        "meta_mean_anomaly": 71.5983,
        "meta_ephemeris_type": 0,
        "meta_classification_type": "U",
        "meta_norad_cat_id": 43567,
        "meta_element_set_no": 999,
        "meta_rev_at_epoch": 4611,
        "meta_bstar": 0,
        "meta_mean_motion_dot": -7.2e-07,
        "meta_mean_motion_ddot": 0,
        "tle_line1": "1 43567U 18060D   25353.64460383 -.00000072  00000+0  00000+0 0  9990",
        "tle_line2": "2 43567  57.2288 346.6359 0006070 288.3471  71.5983  1.70475932 46114"
      },
      "geometry": {
        "type": "Point",
        "coordinates": [
          -124.05258156679427,
          -55.46301257398261
        ]
      }
    },
    {
      "type": "Feature",
      "properties": {
        "norad_id": 43581,
        "name": "BEIDOU-3 M5 (C23)",
        "group": "gnss",
        "lat": -19.567382163852194,
        "lon": 173.3838771647666,
        "alt_km": 21526.06318781277,
        "timestamp": "2025-12-22T09:53:37.648071+00:00",
        "meta_object_name": "BEIDOU-3 M5 (C23)",
        "meta_object_id": "2018-062A",
        "meta_epoch": "2025-12-20T20:06:28.321920",
        "meta_mean_motion": 1.86228978,
        "meta_eccentricity": 0.00019384,
        "meta_inclination": 54.0899,
        "meta_ra_of_asc_node": 188.3678,
        "meta_arg_of_pericenter": 1.5281,
        "meta_mean_anomaly": 358.5256,
        "meta_ephemeris_type": 0,
        "meta_classification_type": "U",
        "meta_norad_cat_id": 43581,
        "meta_element_set_no": 999,
        "meta_rev_at_epoch": 5031,
        "meta_bstar": 0,
        "meta_mean_motion_dot": 9.5e-07,
        "meta_mean_motion_ddot": 0,
        "tle_line1": "1 43581U 18062A   25354.83782780  .00000095  00000+0  00000+0 0  9992",
        "tle_line2": "2 43581  54.0899 188.3678 0001938   1.5281 358.5256  1.86228978 50311"
      },
      "geometry": {
        "type": "Point",
        "coordinates": [
          173.3838771647666,
          -19.567382163852194
        ]
      }
    },
    {
      "type": "Feature",
      "properties": {
        "norad_id": 43582,
        "name": "BEIDOU-3 M6 (C24)",
        "group": "gnss",
        "lat": 48.42244194557518,
        "lon": -116.87441664115633,
        "alt_km": 21501.710234685517,
        "timestamp": "2025-12-22T09:53:37.648082+00:00",
        "meta_object_name": "BEIDOU-3 M6 (C24)",
        "meta_object_id": "2018-062B",
        "meta_epoch": "2025-12-21T18:35:38.748192",
        "meta_mean_motion": 1.86229862,
        "meta_eccentricity": 0.0007841,
        "meta_inclination": 54.0893,
        "meta_ra_of_asc_node": 188.325,
        "meta_arg_of_pericenter": 48.2344,
        "meta_mean_anomaly": 311.88,
        "meta_ephemeris_type": 0,
        "meta_classification_type": "U",
        "meta_norad_cat_id": 43582,
        "meta_element_set_no": 999,
        "meta_rev_at_epoch": 5033,
        "meta_bstar": 0,
        "meta_mean_motion_dot": 9.4e-07,
        "meta_mean_motion_ddot": 0,
        "tle_line1": "1 43582U 18062B   25355.77475403  .00000094  00000+0  00000+0 0  9997",
        "tle_line2": "2 43582  54.0893 188.3250 0007841  48.2344 311.8800  1.86229862 50331"
      },
      "geometry": {
        "type": "Point",
        "coordinates": [
          -116.87441664115633,
          48.42244194557518
        ]
      }
    },
    {
      "type": "Feature",
      "properties": {
        "norad_id": 43602,
        "name": "BEIDOU-3 M12 (C26)",
        "group": "gnss",
        "lat": 49.93843664121527,
        "lon": -52.195903678781164,
        "alt_km": 21512.650694714433,
        "timestamp": "2025-12-22T09:53:37.648093+00:00",
        "meta_object_name": "BEIDOU-3 M12 (C26)",
        "meta_object_id": "2018-067A",
        "meta_epoch": "2025-12-19T13:33:24.239232",
        "meta_mean_motion": 1.86227856,
        "meta_eccentricity": 0.00092481,
        "meta_inclination": 54.1835,
        "meta_ra_of_asc_node": 187.1314,
        "meta_arg_of_pericenter": 41.3287,
        "meta_mean_anomaly": 318.7989,
        "meta_ephemeris_type": 0,
        "meta_classification_type": "U",
        "meta_norad_cat_id": 43602,
        "meta_element_set_no": 999,
        "meta_rev_at_epoch": 4977,
        "meta_bstar": 0,
        "meta_mean_motion_dot": 1.01e-06,
        "meta_mean_motion_ddot": 0,
        "tle_line1": "1 43602U 18067A   25353.56486388  .00000101  00000+0  00000+0 0  9993",
        "tle_line2": "2 43602  54.1835 187.1314 0009248  41.3287 318.7989  1.86227856 49773"
      },
      "geometry": {
        "type": "Point",
        "coordinates": [
          -52.195903678781164,
          49.93843664121527
        ]
      }
    },
    {
      "type": "Feature",
      "properties": {
        "norad_id": 43603,
        "name": "BEIDOU-3 M11 (C25)",
        "group": "gnss",
        "lat": 15.175587018023228,
        "lon": -161.69362239191588,
        "alt_km": 21511.718447418654,
        "timestamp": "2025-12-22T09:53:37.648104+00:00",
        "meta_object_name": "BEIDOU-3 M11 (C25)",
        "meta_object_id": "2018-067B",
        "meta_epoch": "2025-12-21T20:19:59.001024",
        "meta_mean_motion": 1.86227373,
        "meta_eccentricity": 0.0005649,
        "meta_inclination": 54.1806,
        "meta_ra_of_asc_node": 187.018,
        "meta_arg_of_pericenter": 37.4949,
        "meta_mean_anomaly": 322.5886,
        "meta_ephemeris_type": 0,
        "meta_classification_type": "U",
        "meta_norad_cat_id": 43603,
        "meta_element_set_no": 999,
        "meta_rev_at_epoch": 4984,
        "meta_bstar": 0,
        "meta_mean_motion_dot": 9.4e-07,
        "meta_mean_motion_ddot": 0,
        "tle_line1": "1 43603U 18067B   25355.84721066  .00000094  00000+0  00000+0 0  9993",
        "tle_line2": "2 43603  54.1806 187.0180 0005649  37.4949 322.5886  1.86227373 49845"
      },
      "geometry": {
        "type": "Point",
        "coordinates": [
          -161.69362239191588,
          15.175587018023228
        ]
      }
    },
    {
      "type": "Feature",
      "properties": {
        "norad_id": 43622,
        "name": "BEIDOU-3 M13 (C32)",
        "group": "gnss",
        "lat": 38.298984414775006,
        "lon": 100.04956337414235,
        "alt_km": 21529.23533635421,
        "timestamp": "2025-12-22T09:53:37.648115+00:00",
        "meta_object_name": "BEIDOU-3 M13 (C32)",
        "meta_object_id": "2018-072A",
        "meta_epoch": "2025-12-21T06:24:05.172192",
        "meta_mean_motion": 1.86231118,
        "meta_eccentricity": 0.00062116,
        "meta_inclination": 56.4663,
        "meta_ra_of_asc_node": 68.5379,
        "meta_arg_of_pericenter": 298.3671,
        "meta_mean_anomaly": 61.6165,
        "meta_ephemeris_type": 0,
        "meta_classification_type": "U",
        "meta_norad_cat_id": 43622,
        "meta_element_set_no": 999,
        "meta_rev_at_epoch": 4934,
        "meta_bstar": 0,
        "meta_mean_motion_dot": -3.6e-07,
        "meta_mean_motion_ddot": 0,
        "tle_line1": "1 43622U 18072A   25355.26672653 -.00000036  00000+0  00000+0 0  9990",
        "tle_line2": "2 43622  56.4663  68.5379 0006211 298.3671  61.6165  1.86231118 49349"
      },
      "geometry": {
        "type": "Point",
        "coordinates": [
          100.04956337414235,
          38.298984414775006
        ]
      }
    },
    {
      "type": "Feature",
      "properties": {
        "norad_id": 43623,
        "name": "BEIDOU-3 M14 (C33)",
        "group": "gnss",
        "lat": 33.73956330377314,
        "lon": -137.73506607544394,
        "alt_km": 21533.79658263667,
        "timestamp": "2025-12-22T09:53:37.648128+00:00",
        "meta_object_name": "BEIDOU-3 M14 (C33)",
        "meta_object_id": "2018-072B",
        "meta_epoch": "2025-12-22T04:56:47.689728",
        "meta_mean_motion": 1.86231163,
        "meta_eccentricity": 0.0003576,
        "meta_inclination": 56.4687,
        "meta_ra_of_asc_node": 68.5008,
        "meta_arg_of_pericenter": 327.1514,
        "meta_mean_anomaly": 32.8768,
        "meta_ephemeris_type": 0,
        "meta_classification_type": "U",
        "meta_norad_cat_id": 43623,
        "meta_element_set_no": 999,
        "meta_rev_at_epoch": 4935,
        "meta_bstar": 0,
        "meta_mean_motion_dot": -3e-07,
        "meta_mean_motion_ddot": 0,
        "tle_line1": "1 43623U 18072B   25356.20610752 -.00000030  00000+0  00000+0 0  9992",
        "tle_line2": "2 43623  56.4687  68.5008 0003576 327.1514  32.8768  1.86231163 49353"
      },
      "geometry": {
        "type": "Point",
        "coordinates": [
          -137.73506607544394,
          33.73956330377314
        ]
      }
    }
  ]
}